QIANFAN-25              
1 61558U 24185G   25351.27781632  .00000336  00000+0  19684-3 0  9999
2 61558  88.9807  77.6775 0007472 304.8149  55.2329 14.05912477 70143
QIANFAN-26              
1 61559U 24185H   25351.32383598  .00000134  00000+0  12150-3 0  9992
2 61559  88.9813  79.2574 0005428  18.4305 341.7057 13.77814499 69307
QIANFAN-27              
1 61560U 24185J   25351.30538838  .00000538  00000+0  21393-3 0  9998
2 61560  88.9806  76.4096 0005586 273.0227  87.0328 14.27339225 70810
QIANFAN-28              
1 61561U 24185K   25351.28532366  .00000814  00000+0  32231-3 0  9996
2 61561  88.9824  76.4156 0005029 271.2381  88.8238 14.28044787 70828
QIANFAN-29              
1 61562U 24185L   25351.33092585  .00000166  00000+0  23799-3 0  9996
2 61562  88.9790  80.8375 0010847  47.2647 312.9415 13.51013169 68418
QIANFAN-30              
1 61563U 24185M   25351.30924005  .00000047  00000+0  54322-4 0  9990
2 61563  88.9811  80.3669 0008062  37.1445 323.0262 13.49988914 68682
QIANFAN-31              
1 61564U 24185N   25351.32452491  .00000185  00000+0  23898-3 0  9994
2 61564  88.9794  80.1601 0007256  32.6667 327.4935 13.57967764 68782
QIANFAN-32              
1 61565U 24185P   25351.27517158  .00000070  00000+0  90563-4 0  9998
2 61565  88.9853  80.5059 0010620  58.6445 301.5743 13.50736223 68654
